{
  "leisure/amusement_arcade|アドアーズ": {
    "countryCodes": ["jp"],
    "tags": {
      "brand": "アドアーズ",
      "brand:en": "Adores",
      "brand:ja": "アドアーズ",
      "brand:wikidata": "Q54843532",
      "brand:wikipedia": "ja:アドアーズ",
      "leisure": "amusement_arcade",
      "name": "アドアーズ",
      "name:en": "Adores",
      "name:ja": "アドアーズ"
    }
  },
  "leisure/amusement_arcade|アピナ": {
    "countryCodes": ["jp"],
    "tags": {
      "brand": "アピナ",
      "brand:en": "Apina",
      "brand:ja": "アピナ",
      "brand:wikidata": "Q55385192",
      "brand:wikipedia": "ja:共和コーポレーション",
      "leisure": "amusement_arcade",
      "name": "アピナ",
      "name:en": "Apina",
      "name:ja": "アピナ"
    }
  },
  "leisure/amusement_arcade|セガ": {
    "countryCodes": ["jp"],
    "tags": {
      "brand": "セガ",
      "brand:en": "Sega",
      "brand:ja": "セガ",
      "brand:wikidata": "Q7446141",
      "brand:wikipedia": "ja:セガ エンタテインメント",
      "leisure": "amusement_arcade",
      "name": "セガ",
      "name:en": "Sega",
      "name:ja": "セガ"
    }
  },
  "leisure/amusement_arcade|ナムコ": {
    "countryCodes": ["jp"],
    "tags": {
      "brand": "ナムコ",
      "brand:en": "NAMCO",
      "brand:ja": "ナムコ",
      "brand:wikidata": "Q309996",
      "brand:wikipedia": "ja:バンダイナムコアミューズメント",
      "leisure": "amusement_arcade",
      "name": "ナムコ",
      "name:en": "NAMCO",
      "name:ja": "ナムコ"
    }
  }
}